GPS BIIR-2  (PRN 13)    
1 24876U 97035A   22131.46744027  .00000103  00000+0  00000+0 0  9996
2 24876  55.5046 157.1161 0057091  51.3331 309.2447  2.00563433181919
GPS BIIR-4  (PRN 20)    
1 26360U 00025A   22131.84969389 -.00000006  00000+0  00000+0 0  9994
2 26360  54.0305  80.3777 0048155 183.9728 179.6305  2.00575347161247
GPS BIIR-6  (PRN 22)    
1 26605U 00071A   22131.86415624  .00000106  00000+0  00000+0 0  9997
2 26605  55.0878 154.1090 0135520 254.0600 251.2334  2.00561682157482
GPS BIIR-8  (PRN 16)    
1 27663U 03005A   22131.62492462 -.00000022  00000+0  00000+0 0  9999
2 27663  55.5382 274.5225 0126067  40.9357 141.6839  2.00566718141273
GPS BIIR-9  (PRN 21)    
1 27704U 03010A   22131.32505911 -.00000082  00000+0  00000+0 0  9998
2 27704  55.0108  24.8091 0245439 305.0810 239.2254  2.00554183140065
GPS BIIR-11 (PRN 19)    
1 28190U 04009A   22131.66914420 -.00000043  00000+0  00000+0 0  9990
2 28190  56.0256 335.4926 0090147 118.6048 252.4921  2.00561121132916
GPS BIIR-13 (PRN 02)    
1 28474U 04045A   22131.73411171 -.00000080  00000+0  00000+0 0  9999
2 28474  55.3385  24.9168 0206991 278.6433  48.6110  2.00565534128399
GPS BIIRM-1 (PRN 17)    
1 28874U 05038A   22131.63848035 -.00000040  00000+0  00000+0 0  9994
2 28874  56.0934 332.9266 0137240 274.4240  94.3650  2.00578641121801
GPS BIIRM-2 (PRN 31)    
1 29486U 06042A   22131.72791878  .00000023  00000+0  00000+0 0  9992
2 29486  54.7179 210.7338 0103321  21.1295 331.5347  2.00556325114356
GPS BIIRM-3 (PRN 12)    
1 29601U 06052A   22131.67949514 -.00000023  00000+0  00000+0 0  9999
2 29601  55.5439 273.4567 0084464  73.0558 287.8463  2.00577768113374
GPS BIIRM-4 (PRN 15)    
1 32260U 07047A   22131.49692185  .00000101  00000+0  00000+0 0  9994
2 32260  53.3041 142.0747 0138207  62.0323 299.4075  2.00550387106770
GPS BIIRM-5 (PRN 29)    
1 32384U 07062A   22131.70458826 -.00000041  00000+0  00000+0 0  9998
2 32384  56.2112 333.6802 0019631 133.6390 147.6167  2.00559942105474
GPS BIIRM-6 (PRN 07)    
1 32711U 08012A   22132.40878358  .00000032  00000+0  00000+0 0  9991
2 32711  54.4771 209.6506 0162238 230.4705 128.1451  2.00564213103734
GPS BIIRM-8 (PRN 05)    
1 35752U 09043A   22131.56809997  .00000012  00000+0  00000+0 0  9991
2 35752  55.0448  87.0119 0057748  57.2193  73.3400  2.00558421 93325
GPS BIIF-1  (PRN 25)    
1 36585U 10022A   22131.69815307 -.00000024  00000+0  00000+0 0  9995
2 36585  54.8260 269.0009 0103387  56.7473 283.7746  2.00563381 87554
GPS BIIF-2  (PRN 01)    
1 37753U 11036A   22132.61893444 -.00000077  00000+0  00000+0 0  9998
2 37753  56.5902  30.0988 0116809  51.1481 319.2980  2.00565146 79251
GPS BIIF-3  (PRN 24)    
1 38833U 12053A   22131.09293943  .00000025  00000+0  00000+0 0  9999
2 38833  53.5314 204.8806 0122830  45.9465 315.1206  2.00561355 69397
GPS BIIF-4  (PRN 27)    
1 39166U 13023A   22131.45044309 -.00000038  00000+0  00000+0 0  9992
2 39166  55.7224 329.3208 0103914  37.7939 322.9630  2.00566152 65840
GPS BIIF-5  (PRN 30)    
1 39533U 14008A   22131.44752183  .00000020  00000+0  00000+0 0  9999
2 39533  53.6264 210.3683 0058951 207.3942 152.3493  2.00551580 59646
GPS BIIF-6  (PRN 06)    
1 39741U 14026A   22131.22974876 -.00000080  00000+0  00000+0 0  9998
2 39741  56.5521  29.6787 0027713 307.4235  52.3555  2.00558644 58498
GPS BIIF-7  (PRN 09)    
1 40105U 14045A   22131.31644070  .00000103  00000+0  00000+0 0  9990
2 40105  54.6834 148.2864 0018628 109.6072 250.6497  2.00575498 56032
GPS BIIF-8  (PRN 03)    
1 40294U 14068A   22131.19363012  .00000021  00000+0  00000+0 0  9993
2 40294  55.7889  89.4063 0039528  52.5649 307.7739  2.00568903 55167
GPS BIIF-9  (PRN 26)    
1 40534U 15013A   22131.32848839 -.00000025  00000+0  00000+0 0  9996
2 40534  53.7277 266.2327 0068556  20.6404 339.6148  2.00554730 51784
GPS BIIF-10 (PRN 08)    
1 40730U 15033A   22130.99416337 -.00000039  00000+0  00000+0 0  9997
2 40730  55.2222 328.1859 0074193   7.6126 352.5282  2.00553899 49940
GPS BIIF-11 (PRN 10)    
1 41019U 15062A   22131.53889435  .00000019  00000+0  00000+0 0  9991
2 41019  55.7782  89.2347 0077395 218.5637 140.8624  2.00562827 47791
GPS BIIF-12 (PRN 32)    
1 41328U 16007A   22131.63219774  .00000106  00000+0  00000+0 0  9995
2 41328  54.9020 148.9367 0061293 230.2611 129.2537  2.00572369 45804
GPS BIII-1  (PRN 04)    
1 43873U 18109A   22131.48442972  .00000105  00000+0  00000+0 0  9997
2 43873  55.0816 151.3536 0018569 196.9471 312.0054  2.00569773 25036
GPS BIII-2  (PRN 18)    
1 44506U 19056A   22131.63188083 -.00000080  00000+0  00000+0 0  9993
2 44506  55.6621  30.5134 0022778 179.8438 339.0268  2.00572079 20036
GPS BIII-3  (PRN 23)    
1 45854U 20041A   22132.64813155  .00000010  00000+0  00000+0 0  9995
2 45854  55.4967  87.7422 0021040 178.4378 290.3743  2.00559441 14013
GPS BIII-4  (PRN 14)    
1 46826U 20078A   22132.77131459 -.00000025  00000+0  00000+0 0  9996
2 46826  54.5921 271.5428 0018431 184.3980 347.4861  2.00565284 11482
GPS BIII-5  (PRN 11)    
1 48859U 21054A   22132.73057998 -.00000078  00000+0  00000+0 0  9998
2 48859  55.1675  32.4874 0003568 200.9410 123.9945  2.00575512  6737
